STARLINK-35860          
1 66881U 25283D   26001.19160475  .00109768  00000+0  19493-2 0  9999
2 66881  53.1603 338.1338 0001158 111.0276 249.0857 15.49379397  5503
STARLINK-35912          
1 66882U 25283E   26001.58335648 -.02079611  00000+0 -53104-1 0  9992
2 66882  53.1594 336.2923 0001108  90.7906 279.3708 15.42590538  5618
STARLINK-35947          
1 66883U 25283F   26001.58335648 -.02080959  00000+0 -55937-1 0  9996
2 66883  53.1598 336.3059 0001248  99.1705 263.7971 15.41069593  5664
STARLINK-36057          
1 66884U 25283G   25365.22260875  .00108114  00000+0  19229-2 0  9994
2 66884  53.1599 342.7508 0001420 114.7727 245.3430 15.49343070  5351
STARLINK-35954          
1 66885U 25283H   26001.12601344  .00104247  00000+0  18451-2 0  9991
2 66885  53.1606 338.4350 0001890 108.7197 251.4017 15.49499766  5491
STARLINK-35900          
1 66886U 25283J   26001.18988816  .00101566  00000+0  18079-2 0  9997
2 66886  53.1608 338.1213 0001470  89.2191 270.8986 15.49351497  5500
STARLINK-35925          
1 66887U 25283K   26001.58335648 -.02124304  00000+0 -43726-1 0  9996
2 66887  53.1593 336.2359 0001127  60.7716 336.9779 15.48889235  5611
STARLINK-35919          
1 66888U 25283L   26001.38271465  .00087810  00000+0  15636-2 0  9997
2 66888  53.1605 337.1920 0000840 161.3509 198.7531 15.49410758  5531
STARLINK-35852          
1 66889U 25283M   26001.58335648 -.00337683  00000+0 -62999-2 0  9996
2 66889  53.1592 336.2268 0001407  79.2720 322.3869 15.49439771  5618
STARLINK-35885          
1 66890U 25283N   26001.58335648 -.00029007  00000+0 -51510-3 0  9994
2 66890  53.1591 336.2229 0001449  96.4694 307.1292 15.49325394  5619
STARLINK-35855          
1 66891U 25283P   26001.38204564 -.03290145  00000+0 -78725-1 0  9996
2 66891  53.1605 337.1850 0030846 154.7685 205.4837 15.44234034  5538
STARLINK-35883          
1 66892U 25283Q   26001.25233644  .00131114  00000+0  23245-2 0  9997
2 66892  53.1603 337.7970 0001529  55.0188 305.0964 15.49328463  5514
