CCSDS_OMM_VERS = 2.0
CREATION_DATE  = 
ORIGINATOR     = 

OBJECT_NAME    = STARLINK-35860
OBJECT_ID      = 2025-283D
CENTER_NAME    = EARTH
REF_FRAME      = TEME
TIME_SYSTEM    = UTC
MEAN_ELEMENT_THEORY = SGP/SGP4

EPOCH          = 2026-01-01T04:35:54.650400
MEAN_MOTION    = 15.49379397
ECCENTRICITY   = .00011581
INCLINATION    = 53.1603
RA_OF_ASC_NODE = 338.1338
ARG_OF_PERICENTER = 111.0276
MEAN_ANOMALY   = 249.0857

EPHEMERIS_TYPE = 0
CLASSIFICATION_TYPE = U
NORAD_CAT_ID   = 66881
ELEMENT_SET_NO = 999
REV_AT_EPOCH   = 550
BSTAR          = .19492505E-2
MEAN_MOTION_DOT = .109768E-2
MEAN_MOTION_DDOT = 0

CCSDS_OMM_VERS = 2.0
CREATION_DATE  = 
ORIGINATOR     = 

OBJECT_NAME    = STARLINK-35912
OBJECT_ID      = 2025-283E
CENTER_NAME    = EARTH
REF_FRAME      = TEME
TIME_SYSTEM    = UTC
MEAN_ELEMENT_THEORY = SGP/SGP4

EPOCH          = 2026-01-01T14:00:01.999872
MEAN_MOTION    = 15.42590538
ECCENTRICITY   = .00011088
INCLINATION    = 53.1594
RA_OF_ASC_NODE = 336.2923
ARG_OF_PERICENTER = 90.7906
MEAN_ANOMALY   = 279.3708

EPHEMERIS_TYPE = 0
CLASSIFICATION_TYPE = U
NORAD_CAT_ID   = 66882
ELEMENT_SET_NO = 999
REV_AT_EPOCH   = 561
BSTAR          = -.53104401E-1
MEAN_MOTION_DOT = -.2079611E-1
MEAN_MOTION_DDOT = 0

CCSDS_OMM_VERS = 2.0
CREATION_DATE  = 
ORIGINATOR     = 

OBJECT_NAME    = STARLINK-35947
OBJECT_ID      = 2025-283F
CENTER_NAME    = EARTH
REF_FRAME      = TEME
TIME_SYSTEM    = UTC
MEAN_ELEMENT_THEORY = SGP/SGP4

EPOCH          = 2026-01-01T14:00:01.999872
MEAN_MOTION    = 15.41069593
ECCENTRICITY   = .0001248
INCLINATION    = 53.1598
RA_OF_ASC_NODE = 336.3059
ARG_OF_PERICENTER = 99.1705
MEAN_ANOMALY   = 263.7971

EPHEMERIS_TYPE = 0
CLASSIFICATION_TYPE = U
NORAD_CAT_ID   = 66883
ELEMENT_SET_NO = 999
REV_AT_EPOCH   = 566
BSTAR          = -.55937352E-1
MEAN_MOTION_DOT = -.2080959E-1
MEAN_MOTION_DDOT = 0

CCSDS_OMM_VERS = 2.0
CREATION_DATE  = 
ORIGINATOR     = 

OBJECT_NAME    = STARLINK-36057
OBJECT_ID      = 2025-283G
CENTER_NAME    = EARTH
REF_FRAME      = TEME
TIME_SYSTEM    = UTC
MEAN_ELEMENT_THEORY = SGP/SGP4

EPOCH          = 2025-12-31T05:20:33.396000
MEAN_MOTION    = 15.49343070
ECCENTRICITY   = .000142
INCLINATION    = 53.1599
RA_OF_ASC_NODE = 342.7508
ARG_OF_PERICENTER = 114.7727
MEAN_ANOMALY   = 245.3430

EPHEMERIS_TYPE = 0
CLASSIFICATION_TYPE = U
NORAD_CAT_ID   = 66884
ELEMENT_SET_NO = 999
REV_AT_EPOCH   = 535
BSTAR          = .19229E-2
MEAN_MOTION_DOT = .108114E-2
MEAN_MOTION_DDOT = 0

CCSDS_OMM_VERS = 2.0
CREATION_DATE  = 
ORIGINATOR     = 

OBJECT_NAME    = STARLINK-35954
OBJECT_ID      = 2025-283H
CENTER_NAME    = EARTH
REF_FRAME      = TEME
TIME_SYSTEM    = UTC
MEAN_ELEMENT_THEORY = SGP/SGP4

EPOCH          = 2026-01-01T03:01:27.561216
MEAN_MOTION    = 15.49499766
ECCENTRICITY   = .00018903
INCLINATION    = 53.1606
RA_OF_ASC_NODE = 338.4350
ARG_OF_PERICENTER = 108.7197
MEAN_ANOMALY   = 251.4017

EPHEMERIS_TYPE = 0
CLASSIFICATION_TYPE = U
NORAD_CAT_ID   = 66885
ELEMENT_SET_NO = 999
REV_AT_EPOCH   = 549
BSTAR          = .1845064E-2
MEAN_MOTION_DOT = .104247E-2
MEAN_MOTION_DDOT = 0

CCSDS_OMM_VERS = 2.0
CREATION_DATE  = 
ORIGINATOR     = 

OBJECT_NAME    = STARLINK-35900
OBJECT_ID      = 2025-283J
CENTER_NAME    = EARTH
REF_FRAME      = TEME
TIME_SYSTEM    = UTC
MEAN_ELEMENT_THEORY = SGP/SGP4

EPOCH          = 2026-01-01T04:33:26.337024
MEAN_MOTION    = 15.49351497
ECCENTRICITY   = .00014703
INCLINATION    = 53.1608
RA_OF_ASC_NODE = 338.1213
ARG_OF_PERICENTER = 89.2191
MEAN_ANOMALY   = 270.8986

EPHEMERIS_TYPE = 0
CLASSIFICATION_TYPE = U
NORAD_CAT_ID   = 66886
ELEMENT_SET_NO = 999
REV_AT_EPOCH   = 550
BSTAR          = .18078617E-2
MEAN_MOTION_DOT = .101566E-2
MEAN_MOTION_DDOT = 0

CCSDS_OMM_VERS = 2.0
CREATION_DATE  = 
ORIGINATOR     = 

OBJECT_NAME    = STARLINK-35925
OBJECT_ID      = 2025-283K
CENTER_NAME    = EARTH
REF_FRAME      = TEME
TIME_SYSTEM    = UTC
MEAN_ELEMENT_THEORY = SGP/SGP4

EPOCH          = 2026-01-01T14:00:01.999872
MEAN_MOTION    = 15.48889235
ECCENTRICITY   = .00011276
INCLINATION    = 53.1593
RA_OF_ASC_NODE = 336.2359
ARG_OF_PERICENTER = 60.7716
MEAN_ANOMALY   = 336.9779

EPHEMERIS_TYPE = 0
CLASSIFICATION_TYPE = U
NORAD_CAT_ID   = 66887
ELEMENT_SET_NO = 999
REV_AT_EPOCH   = 561
BSTAR          = -.43726261E-1
MEAN_MOTION_DOT = -.2124304E-1
MEAN_MOTION_DDOT = 0

CCSDS_OMM_VERS = 2.0
CREATION_DATE  = 
ORIGINATOR     = 

OBJECT_NAME    = STARLINK-35919
OBJECT_ID      = 2025-283L
CENTER_NAME    = EARTH
REF_FRAME      = TEME
TIME_SYSTEM    = UTC
MEAN_ELEMENT_THEORY = SGP/SGP4

EPOCH          = 2026-01-01T09:11:06.545760
MEAN_MOTION    = 15.49410758
ECCENTRICITY   = .000084
INCLINATION    = 53.1605
RA_OF_ASC_NODE = 337.1920
ARG_OF_PERICENTER = 161.3509
MEAN_ANOMALY   = 198.7531

EPHEMERIS_TYPE = 0
CLASSIFICATION_TYPE = U
NORAD_CAT_ID   = 66888
ELEMENT_SET_NO = 999
REV_AT_EPOCH   = 553
BSTAR          = .15635904E-2
MEAN_MOTION_DOT = .8781E-3
MEAN_MOTION_DDOT = 0

CCSDS_OMM_VERS = 2.0
CREATION_DATE  = 
ORIGINATOR     = 

OBJECT_NAME    = STARLINK-35852
OBJECT_ID      = 2025-283M
CENTER_NAME    = EARTH
REF_FRAME      = TEME
TIME_SYSTEM    = UTC
MEAN_ELEMENT_THEORY = SGP/SGP4

EPOCH          = 2026-01-01T14:00:01.999872
MEAN_MOTION    = 15.49439771
ECCENTRICITY   = .00014073
INCLINATION    = 53.1592
RA_OF_ASC_NODE = 336.2268
ARG_OF_PERICENTER = 79.2720
MEAN_ANOMALY   = 322.3869

EPHEMERIS_TYPE = 0
CLASSIFICATION_TYPE = U
NORAD_CAT_ID   = 66889
ELEMENT_SET_NO = 999
REV_AT_EPOCH   = 561
BSTAR          = -.62998874E-2
MEAN_MOTION_DOT = -.337683E-2
MEAN_MOTION_DDOT = 0

CCSDS_OMM_VERS = 2.0
CREATION_DATE  = 
ORIGINATOR     = 

OBJECT_NAME    = STARLINK-35885
OBJECT_ID      = 2025-283N
CENTER_NAME    = EARTH
REF_FRAME      = TEME
TIME_SYSTEM    = UTC
MEAN_ELEMENT_THEORY = SGP/SGP4

EPOCH          = 2026-01-01T14:00:01.999872
MEAN_MOTION    = 15.49325394
ECCENTRICITY   = .00014492
INCLINATION    = 53.1591
RA_OF_ASC_NODE = 336.2229
ARG_OF_PERICENTER = 96.4694
MEAN_ANOMALY   = 307.1292

EPHEMERIS_TYPE = 0
CLASSIFICATION_TYPE = U
NORAD_CAT_ID   = 66890
ELEMENT_SET_NO = 999
REV_AT_EPOCH   = 561
BSTAR          = -.5150981E-3
MEAN_MOTION_DOT = -.29007E-3
MEAN_MOTION_DDOT = 0

CCSDS_OMM_VERS = 2.0
CREATION_DATE  = 
ORIGINATOR     = 

OBJECT_NAME    = STARLINK-35855
OBJECT_ID      = 2025-283P
CENTER_NAME    = EARTH
REF_FRAME      = TEME
TIME_SYSTEM    = UTC
MEAN_ELEMENT_THEORY = SGP/SGP4

EPOCH          = 2026-01-01T09:10:08.743296
MEAN_MOTION    = 15.44234034
ECCENTRICITY   = .0030846
INCLINATION    = 53.1605
RA_OF_ASC_NODE = 337.1850
ARG_OF_PERICENTER = 154.7685
MEAN_ANOMALY   = 205.4837

EPHEMERIS_TYPE = 0
CLASSIFICATION_TYPE = U
NORAD_CAT_ID   = 66891
ELEMENT_SET_NO = 999
REV_AT_EPOCH   = 553
BSTAR          = -.78724825E-1
MEAN_MOTION_DOT = -.3290145E-1
MEAN_MOTION_DDOT = 0

CCSDS_OMM_VERS = 2.0
CREATION_DATE  = 
ORIGINATOR     = 

OBJECT_NAME    = STARLINK-35883
OBJECT_ID      = 2025-283Q
CENTER_NAME    = EARTH
REF_FRAME      = TEME
TIME_SYSTEM    = UTC
MEAN_ELEMENT_THEORY = SGP/SGP4

EPOCH          = 2026-01-01T06:03:21.868416
MEAN_MOTION    = 15.49328463
ECCENTRICITY   = .00015298
INCLINATION    = 53.1603
RA_OF_ASC_NODE = 337.7970
ARG_OF_PERICENTER = 55.0188
MEAN_ANOMALY   = 305.0964

EPHEMERIS_TYPE = 0
CLASSIFICATION_TYPE = U
NORAD_CAT_ID   = 66892
ELEMENT_SET_NO = 999
REV_AT_EPOCH   = 551
BSTAR          = .23245273E-2
MEAN_MOTION_DOT = .131114E-2
MEAN_MOTION_DDOT = 0

